start=new Date('2022-03-05T00:00:00.000Z').valueOf();
sats=[{"EPOCH":"2022-03-04T19:09:55.844928","LAUNCH_DATE":"2021-05-09","CLASSIFICATION_TYPE":"U","SITE":"AFETR","PERIAPSIS":"546.195","PERIOD":"95.592","ECCENTRICITY":"0.00014600","OBJECT_ID":"2021-040AH","MEAN_ANOMALY":"298.5583","OBJECT_NAME":"STARLINK-2579","CENTER_NAME":"EARTH","DECAY_DATE":null,"EPHEMERIS_TYPE":"0","TLE_LINE2":"2 48459  53.0549 287.2671 0001460  61.5553 298.5583 15.06402567 45620","RA_OF_ASC_NODE":"287.2671","NORAD_CAT_ID":"48459","MEAN_MOTION_DDOT":"0.0000000000000","COUNTRY_CODE":"US","INCLINATION":"53.0549","SEMIMAJOR_AXIS":"6925.341","ARG_OF_PERICENTER":"61.5553","FILE":"3344863","MEAN_ELEMENT_THEORY":"SGP4","APOAPSIS":"548.217","REF_FRAME":"TEME","BSTAR":"0.00007365200000","REV_AT_EPOCH":"4562","RCS_SIZE":"LARGE","MEAN_MOTION":"15.06402567","OBJECT_TYPE":"PAYLOAD","TLE_LINE1":"1 48459U 21040AH  22063.79856302  .00000816  00000-0  73652-4 0  9992","TIME_SYSTEM":"UTC","GP_ID":"197904175","MEAN_MOTION_DOT":"0.00000816","ELEMENT_SET_NO":"999"},{"PERIOD":"95.592","MEAN_ANOMALY":"300.6958","OBJECT_ID":"2021-040AJ","CENTER_NAME":"EARTH","OBJECT_NAME":"STARLINK-2582","ECCENTRICITY":"0.00018480","LAUNCH_DATE":"2021-05-09","EPOCH":"2022-03-04T18:50:04.942752","PERIAPSIS":"545.948","SITE":"AFETR","CLASSIFICATION_TYPE":"U","RA_OF_ASC_NODE":"287.3253","TLE_LINE2":"2 48460  53.0557 287.3253 0001848  59.4213 300.6958 15.06395486 46125","NORAD_CAT_ID":"48460","DECAY_DATE":null,"EPHEMERIS_TYPE":"0","BSTAR":"0.00002080100000","APOAPSIS":"548.507","MEAN_ELEMENT_THEORY":"SGP4","REF_FRAME":"TEME","FILE":"3344863","REV_AT_EPOCH":"4612","SEMIMAJOR_AXIS":"6925.362","COUNTRY_CODE":"US","INCLINATION":"53.0557","MEAN_MOTION_DDOT":"0.0000000000000","ARG_OF_PERICENTER":"59.4213","GP_ID":"197905426","ELEMENT_SET_NO":"999","MEAN_MOTION_DOT":"0.00000028","RCS_SIZE":"LARGE","TLE_LINE1":"1 48460U 21040AJ  22063.78477943  .00000028  00000-0  20801-4 0  9996","TIME_SYSTEM":"UTC","MEAN_MOTION":"15.06395486","OBJECT_TYPE":"PAYLOAD"},{"CLASSIFICATION_TYPE":"U","SITE":"AFETR","PERIAPSIS":"545.760","EPOCH":"2022-03-04T19:11:18.140928","LAUNCH_DATE":"2021-05-09","ECCENTRICITY":"0.00020740","CENTER_NAME":"EARTH","MEAN_ANOMALY":"298.1658","OBJECT_ID":"2021-040AK","OBJECT_NAME":"STARLINK-2693","PERIOD":"95.592","EPHEMERIS_TYPE":"0","DECAY_DATE":null,"NORAD_CAT_ID":"48461","TLE_LINE2":"2 48461  53.0548 287.2528 0002074  61.9540 298.1658 15.06405556 45625","RA_OF_ASC_NODE":"287.2528","ARG_OF_PERICENTER":"61.9540","MEAN_MOTION_DDOT":"0.0000000000000","INCLINATION":"53.0548","COUNTRY_CODE":"US","SEMIMAJOR_AXIS":"6925.332","REV_AT_EPOCH":"4562","FILE":"3344863","REF_FRAME":"TEME","APOAPSIS":"548.633","MEAN_ELEMENT_THEORY":"SGP4","BSTAR":"0.00026723000000","MEAN_MOTION":"15.06405556","OBJECT_TYPE":"PAYLOAD","TIME_SYSTEM":"UTC","TLE_LINE1":"1 48461U 21040AK  22063.79951552  .00003701  00000-0  26723-3 0  9990","RCS_SIZE":"LARGE","MEAN_MOTION_DOT":"0.00003701","ELEMENT_SET_NO":"999","GP_ID":"197905669"},{"ARG_OF_PERICENTER":"65.4044","MEAN_MOTION_DDOT":"0.0000000000000","INCLINATION":"53.0540","COUNTRY_CODE":"US","SEMIMAJOR_AXIS":"6925.352","REV_AT_EPOCH":"4555","FILE":"3344863","REF_FRAME":"TEME","APOAPSIS":"548.411","MEAN_ELEMENT_THEORY":"SGP4","BSTAR":"0.00017477000000","OBJECT_TYPE":"PAYLOAD","MEAN_MOTION":"15.06398936","TLE_LINE1":"1 48462U 21040AL  22063.82206692  .00002322  00000-0  17477-3 0  9997","TIME_SYSTEM":"UTC","RCS_SIZE":"LARGE","MEAN_MOTION_DOT":"0.00002322","ELEMENT_SET_NO":"999","GP_ID":"197904425","CLASSIFICATION_TYPE":"U","SITE":"AFETR","PERIAPSIS":"546.023","EPOCH":"2022-03-04T19:43:46.581888","LAUNCH_DATE":"2021-05-09","ECCENTRICITY":"0.00017240","OBJECT_NAME":"STARLINK-2683","MEAN_ANOMALY":"294.7125","OBJECT_ID":"2021-040AL","CENTER_NAME":"EARTH","PERIOD":"95.592","EPHEMERIS_TYPE":"0","DECAY_DATE":null,"NORAD_CAT_ID":"48462","TLE_LINE2":"2 48462  53.0540 292.1412 0001724  65.4044 294.7125 15.06398936 45550","RA_OF_ASC_NODE":"292.1412"},{"NORAD_CAT_ID":"48463","RA_OF_ASC_NODE":"292.3141","TLE_LINE2":"2 48463  53.0532 292.3141 0001816  63.4992 296.6183 15.06398069 45557","EPHEMERIS_TYPE":"0","DECAY_DATE":null,"ECCENTRICITY":"0.00018160","OBJECT_ID":"2021-040AM","MEAN_ANOMALY":"296.6183","OBJECT_NAME":"STARLINK-2689","CENTER_NAME":"EARTH","PERIOD":"95.592","PERIAPSIS":"545.962","CLASSIFICATION_TYPE":"U","SITE":"AFETR","LAUNCH_DATE":"2021-05-09","EPOCH":"2022-03-04T18:56:00.041568","ELEMENT_SET_NO":"999","MEAN_MOTION_DOT":"-0.00001053","GP_ID":"197904675","TLE_LINE1":"1 48463U 21040AM  22063.78888937 -.00001053  00000-0 -51793-4 0  9993","TIME_SYSTEM":"UTC","OBJECT_TYPE":"PAYLOAD","MEAN_MOTION":"15.06398069","RCS_SIZE":"LARGE","REV_AT_EPOCH":"4555","MEAN_ELEMENT_THEORY":"SGP4","APOAPSIS":"548.477","REF_FRAME":"TEME","BSTAR":"-0.00005179300000","FILE":"3344863","ARG_OF_PERICENTER":"63.4992","SEMIMAJOR_AXIS":"6925.354","MEAN_MOTION_DDOT":"0.0000000000000","COUNTRY_CODE":"US","INCLINATION":"53.0532"},{"TLE_LINE2":"2 48464  53.0543 292.1096 0001630  73.1326 286.9842 15.06392667 45552","RA_OF_ASC_NODE":"292.1096","NORAD_CAT_ID":"48464","DECAY_DATE":null,"EPHEMERIS_TYPE":"0","PERIOD":"95.593","ECCENTRICITY":"0.00016300","OBJECT_NAME":"STARLINK-2686","MEAN_ANOMALY":"286.9842","OBJECT_ID":"2021-040AN","CENTER_NAME":"EARTH","EPOCH":"2022-03-04T20:01:03.805248","LAUNCH_DATE":"2021-05-09","CLASSIFICATION_TYPE":"U","SITE":"AFETR","PERIAPSIS":"546.107","GP_ID":"197904927","MEAN_MOTION_DOT":"-0.00000788","ELEMENT_SET_NO":"999","RCS_SIZE":"LARGE","MEAN_MOTION":"15.06392667","OBJECT_TYPE":"PAYLOAD","TIME_SYSTEM":"UTC","TLE_LINE1":"1 48464U 21040AN  22063.83407182 -.00000788  00000-0 -33988-4 0  9999","FILE":"3344863","APOAPSIS":"548.365","REF_FRAME":"TEME","MEAN_ELEMENT_THEORY":"SGP4","BSTAR":"-0.00003398800000","REV_AT_EPOCH":"4555","MEAN_MOTION_DDOT":"0.0000000000000","INCLINATION":"53.0543","COUNTRY_CODE":"US","SEMIMAJOR_AXIS":"6925.371","ARG_OF_PERICENTER":"73.1326"},{"REV_AT_EPOCH":"4555","BSTAR":"-0.00000805890000","REF_FRAME":"TEME","APOAPSIS":"548.381","MEAN_ELEMENT_THEORY":"SGP4","FILE":"3344863","ARG_OF_PERICENTER":"73.6387","SEMIMAJOR_AXIS":"6925.354","COUNTRY_CODE":"US","INCLINATION":"53.0550","MEAN_MOTION_DDOT":"0.0000000000000","ELEMENT_SET_NO":"999","MEAN_MOTION_DOT":"-0.00000402","GP_ID":"197905170","TLE_LINE1":"1 48465U 21040AP  22063.77877908 -.00000402  00000-0 -80589-5 0  9993","TIME_SYSTEM":"UTC","OBJECT_TYPE":"PAYLOAD","MEAN_MOTION":"15.06398106","RCS_SIZE":"LARGE","MEAN_ANOMALY":"286.4787","OBJECT_NAME":"STARLINK-2681","CENTER_NAME":"EARTH","OBJECT_ID":"2021-040AP","ECCENTRICITY":"0.00016780","PERIOD":"95.592","PERIAPSIS":"546.057","SITE":"AFETR","CLASSIFICATION_TYPE":"U","LAUNCH_DATE":"2021-05-09","EPOCH":"2022-03-04T18:41:26.512512","NORAD_CAT_ID":"48465","RA_OF_ASC_NODE":"292.3562","TLE_LINE2":"2 48465  53.0550 292.3562 0001678  73.6387 286.4787 15.06398106 45552","EPHEMERIS_TYPE":"0","DECAY_DATE":null},{"MEAN_MOTION_DOT":"0.00001548","ELEMENT_SET_NO":"999","GP_ID":"197903926","OBJECT_TYPE":"PAYLOAD","MEAN_MOTION":"15.06398026","TIME_SYSTEM":"UTC","TLE_LINE1":"1 48466U 21040AQ  22063.83038738  .00001548  00000-0  12280-3 0  9992","RCS_SIZE":"LARGE","REV_AT_EPOCH":"4556","FILE":"3344863","BSTAR":"0.00012280000000","APOAPSIS":"548.414","REF_FRAME":"TEME","MEAN_ELEMENT_THEORY":"SGP4","ARG_OF_PERICENTER":"61.0572","COUNTRY_CODE":"US","INCLINATION":"53.0545","MEAN_MOTION_DDOT":"0.0000000000000","SEMIMAJOR_AXIS":"6925.355","NORAD_CAT_ID":"48466","TLE_LINE2":"2 48466  53.0545 292.1239 0001724  61.0572 299.0590 15.06398026 45569","RA_OF_ASC_NODE":"292.1239","EPHEMERIS_TYPE":"0","DECAY_DATE":null,"MEAN_ANOMALY":"299.0590","CENTER_NAME":"EARTH","OBJECT_ID":"2021-040AQ","OBJECT_NAME":"STARLINK-2687","ECCENTRICITY":"0.00017240","PERIOD":"95.592","SITE":"AFETR","CLASSIFICATION_TYPE":"U","PERIAPSIS":"546.026","EPOCH":"2022-03-04T19:55:45.469632","LAUNCH_DATE":"2021-05-09"},{"ARG_OF_PERICENTER":"65.4429","MEAN_MOTION_DDOT":"0.0000000000000","COUNTRY_CODE":"US","INCLINATION":"53.0540","SEMIMAJOR_AXIS":"6925.347","REV_AT_EPOCH":"4555","FILE":"3344863","APOAPSIS":"548.349","MEAN_ELEMENT_THEORY":"SGP4","REF_FRAME":"TEME","BSTAR":"0.00016428000000","OBJECT_TYPE":"PAYLOAD","MEAN_MOTION":"15.06400620","TLE_LINE1":"1 48467U 21040AR  22063.78983531  .00002166  00000-0  16428-3 0  9992","TIME_SYSTEM":"UTC","RCS_SIZE":"LARGE","MEAN_MOTION_DOT":"0.00002166","ELEMENT_SET_NO":"999","GP_ID":"197904176","CLASSIFICATION_TYPE":"U","SITE":"AFETR","PERIAPSIS":"546.075","EPOCH":"2022-03-04T18:57:21.770784","LAUNCH_DATE":"2021-05-09","ECCENTRICITY":"0.00016420","OBJECT_ID":"2021-040AR","MEAN_ANOMALY":"294.6731","OBJECT_NAME":"STARLINK-2659","CENTER_NAME":"EARTH","PERIOD":"95.592","EPHEMERIS_TYPE":"0","DECAY_DATE":null,"NORAD_CAT_ID":"48467","TLE_LINE2":"2 48467  53.0540 292.3078 0001642  65.4429 294.6731 15.06400620 45557","RA_OF_ASC_NODE":"292.3078"},{"GP_ID":"197905427","ELEMENT_SET_NO":"999","MEAN_MOTION_DOT":"-0.00000384","RCS_SIZE":"LARGE","TLE_LINE1":"1 48468U 21040AS  22063.83775685 -.00000384  00000-0 -68488-5 0  9995","TIME_SYSTEM":"UTC","OBJECT_TYPE":"PAYLOAD","MEAN_MOTION":"15.06394861","APOAPSIS":"548.370","REF_FRAME":"TEME","MEAN_ELEMENT_THEORY":"SGP4","BSTAR":"-0.00000684880000","FILE":"3344863","REV_AT_EPOCH":"4556","SEMIMAJOR_AXIS":"6925.364","MEAN_MOTION_DDOT":"0.0000000000000","INCLINATION":"53.0557","COUNTRY_CODE":"US","ARG_OF_PERICENTER":"70.0717","RA_OF_ASC_NODE":"292.0797","TLE_LINE2":"2 48468  53.0557 292.0797 0001647  70.0717 290.0449 15.06394861 45564","NORAD_CAT_ID":"48468","DECAY_DATE":null,"EPHEMERIS_TYPE":"0","PERIOD":"95.592","ECCENTRICITY":"0.00016470","OBJECT_ID":"2021-040AS","MEAN_ANOMALY":"290.0449","OBJECT_NAME":"STARLINK-2685","CENTER_NAME":"EARTH","LAUNCH_DATE":"2021-05-09","EPOCH":"2022-03-04T20:06:22.191840","PERIAPSIS":"546.089","CLASSIFICATION_TYPE":"U","SITE":"AFETR"}];
